0 IRIDIUM 33 DEB
1 34518U 97051HK  13281.83589434  .00006377  00000-0  19822-2 0  8044
2 34518 086.4018 133.6222 0027781 299.9562 188.8345 14.40686641241976
0 IRIDIUM 33 DEB
1 34518U 97051HK  13282.80901728  .00008249  00000-0  25638-2 0  8059
2 34518 086.4021 133.2117 0027679 296.5850 196.1137 14.40711073242114
0 IRIDIUM 33 DEB
1 34518U 97051HK  13286.76679425  .00008092  00000-0  25127-2 0  8075
2 34518 086.4017 131.5430 0027388 282.7281 204.5506 14.40763013242687
0 IRIDIUM 33 DEB
1 34518U 97051HK  13288.78008116  .00011584  00000-0  35947-2 0  8084
2 34518 086.4011 130.6937 0027297 275.6213 207.5802 14.40805091242975
0 IRIDIUM 33 DEB
1 34518U 97051HK  13290.72567125  .00012179  00000-0  37766-2 0  8094
2 34518 086.4004 129.8732 0027253 268.7528 219.7388 14.40839212243252
0 IRIDIUM 33 DEB
1 34518U 97051HK  13292.32193378  .00010112  00000-0  31341-2 0  8107
2 34518 086.4003 129.1996 0027169 263.2304 219.9390 14.40867030243483
0 IRIDIUM 33 DEB
1 34518U 97051HK  13294.52605538  .00012294  00000-0  38075-2 0  8112
2 34518 086.4006 128.2696 0027136 255.5193 133.5977 14.40903991243790
